OBJECT_NAME,OBJECT_ID,EPOCH,MEAN_MOTION,ECCENTRICITY,INCLINATION,RA_OF_ASC_NODE,ARG_OF_PERICENTER,MEAN_ANOMALY,EPHEMERIS_TYPE,CLASSIFICATION_TYPE,NORAD_CAT_ID,ELEMENT_SET_NO,REV_AT_EPOCH,BSTAR,MEAN_MOTION_DOT,MEAN_MOTION_DDOT
H-2A R/B,2006-002B,2026-07-18T03:53:20.752800,15.18473670,.0050971,98.2601,357.8078,156.0067,204.3557,0,U,28932,999,11422,.20389903E-3,.4262E-4,0
RESURS-DK 1,2006-021A,2026-07-18T04:03:01.447200,15.13325039,.00072738,69.9304,259.3467,267.7234,92.3099,0,U,29228,999,10726,.56430659E-4,.899E-5,0
CZ-4B R/B,2006-046C,2026-07-18T02:30:46.370304,15.17994528,.00328657,97.5433,243.6173,172.0982,188.0777,0,U,29507,999,7982,.1003678E-3,.1997E-4,0
CZ-2C R/B,2007-010B,2026-07-18T06:26:44.575008,14.20282303,.00577273,98.4121,306.1028,274.6399,84.8187,0,U,31114,999,99825,.40515382E-4,.46E-6,0
COSMO-SKYMED 1,2007-023A,2026-07-18T06:42:40.243680,14.97229209,.00016717,97.8850,31.3988,101.0917,259.0492,0,U,31598,999,3444,.14454285E-3,.1613E-4,0
COSMOS 2428,2007-029A,2026-07-18T00:15:22.887648,14.12936269,.00072517,70.9382,289.7603,75.6463,284.5463,0,U,31792,999,98250,.17721375E-3,.282E-5,0
SL-16 R/B,2007-029B,2026-07-17T14:24:51.014016,14.14853002,.0001924,70.9743,259.2962,256.9207,263.7130,0,U,31793,999,98374,.16175E-3,.264E-5,0
KORONAS-FOTON,2009-003A,2026-07-18T06:36:12.574656,15.46346873,.00118946,82.4311,139.8160,52.9228,307.3107,0,U,33504,999,96590,.14858259E-3,.7391E-4,0
CZ-2C R/B,2011-030B,2026-07-18T07:54:54.051264,14.81535588,.00507086,97.8671,154.1587,285.6816,230.2841,0,U,37731,999,80943,.60483873E-4,.429E-5,0
H-2A R/B,2012-025E,2026-07-17T22:17:08.353824,14.95841383,.00426214,98.4846,176.6150,245.8186,113.8574,0,U,38341,999,76768,.65982428E-4,.679E-5,0
SHIJIAN-16 (SJ-16),2013-057A,2026-07-18T06:32:09.871872,14.92675862,.00156426,74.9742,297.8062,157.2458,202.9427,0,U,39358,999,69098,.62865337E-4,.62E-5,0
SL-4 R/B,2014-021B,2026-07-17T21:46:24.383424,15.42515791,.00895469,51.6063,60.2073,218.4688,140.9892,0,U,39679,999,67635,.12227121E-3,.576E-4,0
ALOS-2,2014-029A,2026-07-18T06:00:24.730272,14.79472609,.00016016,97.9232,295.9701,92.6508,267.4887,0,U,39766,999,65617,.12074823E-3,.85E-5,0
YAOGAN-29,2015-069A,2026-07-18T06:43:41.384640,14.83106242,.00004864,98.0014,227.9607,3.0935,357.0282,0,U,41038,999,57523,-.32218219E-4,-.316E-5,0
ASTRO-H (HITOMI),2016-012A,2026-07-18T05:20:48.103008,15.10639477,.00096465,30.9977,233.7307,205.8369,154.1788,0,U,41337,999,57198,.65381555E-4,.1205E-4,0
HXMT (HUIYAN),2017-034A,2026-07-18T07:27:59.768352,15.18703754,.00319035,43.0153,9.7037,340.2713,19.6900,0,U,42758,999,50239,.10540448E-3,.2007E-4,0
SAOCOM 1A,2018-076A,2026-07-18T07:49:20.649216,14.82146418,.00014192,97.8884,25.6213,86.6084,273.5292,0,U,43641,999,42071,-.33704551E-4,-.32E-5,0
H-2A R/B,2018-084L,2026-07-18T03:15:41.133600,15.46272158,.00203706,98.8522,84.8125,289.5060,70.3984,0,U,43682,999,42590,.2277324E-3,.11181E-3,0
SAOCOM 1B,2020-059A,2026-07-18T06:57:02.765376,14.82145817,.00015097,97.8889,24.6821,83.5494,276.5891,0,U,46265,999,31809,.81391443E-4,.596E-5,0
CSS (TIANHE),2021-035A,2026-07-17T12:32:16.126368,15.58143309,.0001921,41.4691,137.7269,301.5742,58.4908,0,U,48274,999,29790,.18813E-4,.1129E-4,0
COSMOS 2550,2021-056A,2026-07-18T06:12:39.392928,15.33845879,.00085346,67.1439,5.9155,269.8152,90.2024,0,U,48865,999,28348,.8817232E-4,.2712E-4,0
CZ-2C R/B,2022-058K,2026-07-18T04:27:06.844032,15.64014635,.00301713,50.1859,1.9543,35.1352,325.1605,0,U,52794,999,23049,.25896834E-3,.25087E-3,0
CZ-2C R/B,2022-132E,2026-07-17T23:56:16.304352,15.75241570,.00089342,97.2889,207.4843,329.3088,30.7654,0,U,54039,999,21079,.29840195E-3,.44818E-3,0
GSLV R/B,2022-138AN,2026-07-18T04:39:28.753056,14.97390721,.00231879,87.3816,122.5725,42.3526,317.9490,0,U,54149,999,20345,.12522998E-3,.1492E-4,0
XRISM,2023-137A,2026-07-18T04:56:11.328288,15.12682622,.00078538,31.0010,158.6362,276.0934,83.8810,0,U,57800,999,15756,.12223057E-3,.2291E-4,0
ACS3,2024-077B,2026-07-18T04:39:56.685312,13.95327555,.01287573,97.1755,111.1141,33.4328,327.4885,0,U,59588,999,11236,.43059113E-2,.6221E-4,0
SPACEMOBILE-003,2024-163A,2026-07-18T04:05:59.019072,15.20713856,.00044615,52.9670,166.9598,203.3197,156.7595,0,U,61045,999,10248,.71564826E-4,.1268E-4,0
SPACEMOBILE-005,2024-163B,2026-07-18T06:51:23.658336,15.20722937,.00085608,52.9757,166.3840,205.2960,154.7616,0,U,61046,999,10249,.11125988E-3,.2152E-4,0
SPACEMOBILE-001,2024-163C,2026-07-18T03:39:43.074432,15.20705143,.00067837,52.9727,166.7053,200.9381,159.1336,0,U,61047,999,10247,.19358543E-4,.103E-5,0
SPACEMOBILE-002,2024-163D,2026-07-18T06:25:45.243264,15.20679207,.00054138,52.9785,166.2157,203.1224,156.9528,0,U,61048,999,10249,-.42131939E-3,-.9691E-4,0
