H-2A R/B                
1 28932U 06002B   26199.16204575  .00004262  00000+0  20390-3 0  9999
2 28932  98.2601 357.8078 0050971 156.0067 204.3557 15.18473670114225
RESURS-DK 1             
1 29228U 06021A   26199.16876675  .00000899  00000+0  56431-4 0  9993
2 29228  69.9304 259.3467 0007273 267.7234  92.3099 15.13325039107262
CZ-4B R/B               
1 29507U 06046C   26199.10470336  .00001997  00000+0  10037-3 0  9999
2 29507  97.5433 243.6173 0032865 172.0982 188.0777 15.17994528 79820
CZ-2C R/B               
1 31114U 07010B   26199.26857147  .00000046  00000+0  40515-4 0  9993
2 31114  98.4121 306.1028 0057727 274.6399  84.8187 14.20282303998259
COSMO-SKYMED 1          
1 31598U 07023A   26199.27963245  .00001613  00000+0  14454-3 0  9994
2 31598  97.8850  31.3988 0001671 101.0917 259.0492 14.97229209 34442
COSMOS 2428             
1 31792U 07029A   26199.01068157  .00000282  00000+0  17721-3 0  9997
2 31792  70.9382 289.7603 0007251  75.6463 284.5463 14.12936269982503
SL-16 R/B               
1 31793U 07029B   26198.60059044  .00000264  00000+0  16175-3 0  9999
2 31793  70.9743 259.2962 0001924 256.9207 263.7130 14.14853002983748
KORONAS-FOTON           
1 33504U 09003A   26199.27514554  .00007391  00000+0  14858-3 0  9995
2 33504  82.4311 139.8160 0011894  52.9228 307.3107 15.46346873965902
CZ-2C R/B               
1 37731U 11030B   26199.32979226  .00000429  00000+0  60484-4 0  9993
2 37731  97.8671 154.1587 0050708 285.6816 230.2841 14.81535588809430
H-2A R/B                
1 38341U 12025E   26198.92856891  .00000679  00000+0  65982-4 0  9998
2 38341  98.4846 176.6150 0042621 245.8186 113.8574 14.95841383767684
SHIJIAN-16 (SJ-16)      
1 39358U 13057A   26199.27233648  .00000620  00000+0  62865-4 0  9994
2 39358  74.9742 297.8062 0015642 157.2458 202.9427 14.92675862690985
SL-4 R/B                
1 39679U 14021B   26198.90722666  .00005760  00000+0  12227-3 0  9990
2 39679  51.6063  60.2073 0089546 218.4688 140.9892 15.42515791676354
ALOS-2                  
1 39766U 14029A   26199.25028623  .00000850  00000+0  12075-3 0  9992
2 39766  97.9232 295.9701 0001601  92.6508 267.4887 14.79472609656172
YAOGAN-29               
1 41038U 15069A   26199.28034010 -.00000316  00000+0 -32218-4 0  9993
2 41038  98.0014 227.9607 0000486   3.0935 357.0282 14.83106242575231
ASTRO-H (HITOMI)        
1 41337U 16012A   26199.22277897  .00001205  00000+0  65382-4 0  9994
2 41337  30.9977 233.7307 0009646 205.8369 154.1788 15.10639477571985
HXMT (HUIYAN)           
1 42758U 17034A   26199.31110843  .00002007  00000+0  10540-3 0  9990
2 42758  43.0153   9.7037 0031903 340.2713  19.6900 15.18703754502391
SAOCOM 1A               
1 43641U 18076A   26199.32593344 -.00000320  00000+0 -33705-4 0  9998
2 43641  97.8884  25.6213 0001419  86.6084 273.5292 14.82146418420713
H-2A R/B                
1 43682U 18084L   26199.13589275  .00011181  00000+0  22773-3 0  9996
2 43682  98.8522  84.8125 0020370 289.5060  70.3984 15.46272158425901
SAOCOM 1B               
1 46265U 20059A   26199.28961534  .00000596  00000+0  81391-4 0  9999
2 46265  97.8889  24.6821 0001509  83.5494 276.5891 14.82145817318095
CSS (TIANHE)            
1 48274U 21035A   26198.52240887  .00001129  00000+0  18813-4 0  9995
2 48274  41.4691 137.7269 0001921 301.5742  58.4908 15.58143309297902
COSMOS 2550             
1 48865U 21056A   26199.25878927  .00002712  00000+0  88172-4 0  9991
2 48865  67.1439   5.9155 0008534 269.8152  90.2024 15.33845879283486
CZ-2C R/B               
1 52794U 22058K   26199.18549588  .00025087  00000+0  25897-3 0  9994
2 52794  50.1859   1.9543 0030171  35.1352 325.1605 15.64014635230495
CZ-2C R/B               
1 54039U 22132E   26198.99741093  .00044818  00000+0  29840-3 0  9999
2 54039  97.2889 207.4843 0008934 329.3088  30.7654 15.75241570210792
GSLV R/B                
1 54149U 22138AN  26199.19408279  .00001492  00000+0  12523-3 0  9997
2 54149  87.3816 122.5725 0023187  42.3526 317.9490 14.97390721203455
XRISM                   
1 57800U 23137A   26199.20568667  .00002291  00000+0  12223-3 0  9999
2 57800  31.0010 158.6362 0007853 276.0934  83.8810 15.12682622157569
ACS3                    
1 59588U 24077B   26199.19440608  .00006221  00000+0  43059-2 0  9997
2 59588  97.1755 111.1141 0128757  33.4328 327.4885 13.95327555112369
SPACEMOBILE-003         
1 61045U 24163A   26199.17082198  .00001268  00000+0  71565-4 0  9999
2 61045  52.9670 166.9598 0004461 203.3197 156.7595 15.20713856102482
SPACEMOBILE-005         
1 61046U 24163B   26199.28569049  .00002152  00000+0  11126-3 0  9996
2 61046  52.9757 166.3840 0008560 205.2960 154.7616 15.20722937102499
SPACEMOBILE-001         
1 61047U 24163C   26199.15258188  .00000103  00000+0  19359-4 0  9993
2 61047  52.9727 166.7053 0006783 200.9381 159.1336 15.20705143102477
SPACEMOBILE-002         
1 61048U 24163D   26199.26788476 -.00009691  00000+0 -42132-3 0  9991
2 61048  52.9785 166.2157 0005413 203.1224 156.9528 15.20679207102493
